ONEWEB-0607             
1 54671U 22166AF  24124.52428086 -.00000050  00000+0 -15187-3 0  9999
2 54671  87.9320  38.1576 0001744  71.1525 288.9798 13.21823606 69201
ONEWEB-0608             
1 54672U 22166AG  24124.45489505  .00000017  00000+0  97540-5 0  9991
2 54672  87.9324  38.1902 0001900  59.1800 300.9521 13.21823826 69208
ONEWEB-0610             
1 54673U 22166AH  24124.51166576  .00000004  00000+0 -20734-4 0  9996
2 54673  87.9320  38.1763 0001930  64.2611 295.8722 13.21823386 69116
ONEWEB-0611             
1 54674U 22166AJ  24124.50537707 -.00000050  00000+0 -15261-3 0  9994
2 54674  87.9320  38.1766 0002016  92.4841 267.6523 13.21824466 69109
ONEWEB-0612             
1 54675U 22166AK  24124.51798841 -.00000047  00000+0 -14476-3 0  9997
2 54675  87.9319  38.1575 0001946  69.9736 290.1607 13.21824440 69093
ONEWEB-0615             
1 54676U 22166AL  24124.49904927 -.00000010  00000+0 -56385-4 0  9995
2 54676  87.9317  38.1858 0001684  75.8642 284.2679 13.21824037 69104
ONEWEB-0655             
1 54677U 22166AM  24124.47224875 -.00000029  00000+0 -10084-3 0  9996
2 54677  87.9319  38.1927 0001390  75.4663 284.6625 13.21823990 69097
ONEWEB-0659             
1 54678U 22166AN  24124.48959760  .00000072  00000+0  14202-3 0  9998
2 54678  87.9317  38.1968 0002111  84.2454 275.8920 13.21824947 69182
